start=new Date('2022-10-19T00:00:00.000Z').valueOf();
sats=[{"ARG_OF_PERICENTER":"76.1812","CLASSIFICATION_TYPE":"U","ELEMENT_SET_NO":"999","FILE":"3621750","OBJECT_ID":"2019-074AX","MEAN_MOTION":"15.06380273","RA_OF_ASC_NODE":"24.4828","MEAN_MOTION_DDOT":"0.0000000000000","RCS_SIZE":"LARGE","APOAPSIS":"548.312","REF_FRAME":"TEME","ECCENTRICITY":"0.00014990","LAUNCH_DATE":"2019-11-11","DECAY_DATE":null,"COUNTRY_CODE":"US","PERIAPSIS":"546.236","TLE_LINE2":"2 44758  53.0568  24.4828 0001499  76.1812 283.9344 15.06380273161593","MEAN_ANOMALY":"283.9344","SEMIMAJOR_AXIS":"6925.409","SITE":"AFETR","MEAN_ELEMENT_THEORY":"SGP4","REV_AT_EPOCH":"16159","TLE_LINE1":"1 44758U 19074AX  22291.64956825  .00002910  00000-0  21428-3 0  9992","TIME_SYSTEM":"UTC","GP_ID":"215526322","BSTAR":"0.00021428000000","MEAN_MOTION_DOT":"0.00002910","CENTER_NAME":"EARTH","PERIOD":"95.593","OBJECT_TYPE":"PAYLOAD","INCLINATION":"53.0568","NORAD_CAT_ID":"44758","EPOCH":"2022-10-18T15:35:22.696800","EPHEMERIS_TYPE":"0","OBJECT_NAME":"STARLINK-1053"},{"COUNTRY_CODE":"US","PERIAPSIS":"546.379","TLE_LINE2":"2 44759  53.0571  25.6718 0001236  76.3528 283.7599 15.06392977159191","MEAN_ANOMALY":"283.7599","ECCENTRICITY":"0.00012360","LAUNCH_DATE":"2019-11-11","DECAY_DATE":null,"RA_OF_ASC_NODE":"25.6718","MEAN_MOTION_DDOT":"0.0000000000000","APOAPSIS":"548.091","RCS_SIZE":"LARGE","REF_FRAME":"TEME","ARG_OF_PERICENTER":"76.3528","CLASSIFICATION_TYPE":"U","FILE":"3621474","ELEMENT_SET_NO":"999","MEAN_MOTION":"15.06392977","OBJECT_ID":"2019-074AY","INCLINATION":"53.0571","NORAD_CAT_ID":"44759","EPOCH":"2022-10-18T08:46:39.178272","EPHEMERIS_TYPE":"0","OBJECT_NAME":"STARLINK-1054","CENTER_NAME":"EARTH","MEAN_MOTION_DOT":"-0.00002054","OBJECT_TYPE":"PAYLOAD","PERIOD":"95.593","MEAN_ELEMENT_THEORY":"SGP4","REV_AT_EPOCH":"15919","TLE_LINE1":"1 44759U 19074AY  22291.36573123 -.00002054  00000-0 -11905-3 0  9998","TIME_SYSTEM":"UTC","GP_ID":"215495239","BSTAR":"-0.00011905000000","SEMIMAJOR_AXIS":"6925.370","SITE":"AFETR"},{"ARG_OF_PERICENTER":"45.3693","MEAN_MOTION":"15.06393350","FILE":"3621750","ELEMENT_SET_NO":"999","OBJECT_ID":"2019-074AZ","CLASSIFICATION_TYPE":"U","RA_OF_ASC_NODE":"24.2594","MEAN_MOTION_DDOT":"0.0000000000000","RCS_SIZE":"LARGE","APOAPSIS":"548.483","REF_FRAME":"TEME","ECCENTRICITY":"0.00018030","LAUNCH_DATE":"2019-11-11","DECAY_DATE":null,"COUNTRY_CODE":"US","TLE_LINE2":"2 44760  53.0564  24.2594 0001803  45.3693 314.7443 15.06393350161609","PERIAPSIS":"545.985","MEAN_ANOMALY":"314.7443","SEMIMAJOR_AXIS":"6925.369","SITE":"AFETR","TLE_LINE1":"1 44760U 19074AZ  22291.68272175 -.00000283  00000-0 -11770-6 0  9993","MEAN_ELEMENT_THEORY":"SGP4","REV_AT_EPOCH":"16160","GP_ID":"215525331","TIME_SYSTEM":"UTC","BSTAR":"-0.00000011770000","CENTER_NAME":"EARTH","MEAN_MOTION_DOT":"-0.00000283","OBJECT_TYPE":"PAYLOAD","PERIOD":"95.593","NORAD_CAT_ID":"44760","INCLINATION":"53.0564","EPHEMERIS_TYPE":"0","EPOCH":"2022-10-18T16:23:07.159200","OBJECT_NAME":"STARLINK-1055"},{"MEAN_ANOMALY":"296.2964","COUNTRY_CODE":"US","TLE_LINE2":"2 44761  53.0582  24.8091 0001830  63.8213 296.2964 15.06386753161589","PERIAPSIS":"545.987","LAUNCH_DATE":"2019-11-11","DECAY_DATE":null,"ECCENTRICITY":"0.00018300","APOAPSIS":"548.522","RCS_SIZE":"LARGE","REF_FRAME":"TEME","RA_OF_ASC_NODE":"24.8091","MEAN_MOTION_DDOT":"0.0000000000000","FILE":"3621474","MEAN_MOTION":"15.06386753","ELEMENT_SET_NO":"999","OBJECT_ID":"2019-074BA","CLASSIFICATION_TYPE":"U","ARG_OF_PERICENTER":"63.8213","EPHEMERIS_TYPE":"0","EPOCH":"2022-10-18T13:27:58.237344","OBJECT_NAME":"STARLINK-1056","NORAD_CAT_ID":"44761","INCLINATION":"53.0582","OBJECT_TYPE":"PAYLOAD","PERIOD":"95.593","MEAN_MOTION_DOT":"-0.00000239","CENTER_NAME":"EARTH","BSTAR":"0.00000283820000","TLE_LINE1":"1 44761U 19074BA  22291.56109071 -.00000239  00000-0  28382-5 0  9991","REV_AT_EPOCH":"16158","MEAN_ELEMENT_THEORY":"SGP4","GP_ID":"215494239","TIME_SYSTEM":"UTC","SITE":"AFETR","SEMIMAJOR_AXIS":"6925.389"},{"TIME_SYSTEM":"UTC","GP_ID":"215503361","MEAN_ELEMENT_THEORY":"SGP4","REV_AT_EPOCH":"16201","TLE_LINE1":"1 44762U 19074BB  22291.49658232 -.00000786  00000-0 -33873-4 0  9990","BSTAR":"-0.00003387300000","SEMIMAJOR_AXIS":"6925.351","SITE":"AFETR","INCLINATION":"53.0545","NORAD_CAT_ID":"44762","OBJECT_NAME":"STARLINK-1057","EPOCH":"2022-10-18T11:55:04.712448","EPHEMERIS_TYPE":"0","MEAN_MOTION_DOT":"-0.00000786","CENTER_NAME":"EARTH","OBJECT_TYPE":"PAYLOAD","PERIOD":"95.592","MEAN_MOTION_DDOT":"0.0000000000000","RA_OF_ASC_NODE":"5.0937","REF_FRAME":"TEME","RCS_SIZE":"LARGE","APOAPSIS":"548.253","ARG_OF_PERICENTER":"48.7626","CLASSIFICATION_TYPE":"U","ELEMENT_SET_NO":"999","FILE":"3621607","MEAN_MOTION":"15.06399123","OBJECT_ID":"2019-074BB","PERIAPSIS":"546.180","TLE_LINE2":"2 44762  53.0545   5.0937 0001497  48.7626 311.3492 15.06399123162017","COUNTRY_CODE":"US","MEAN_ANOMALY":"311.3492","ECCENTRICITY":"0.00014970","DECAY_DATE":null,"LAUNCH_DATE":"2019-11-11"},{"APOAPSIS":"548.492","RCS_SIZE":"LARGE","REF_FRAME":"TEME","RA_OF_ASC_NODE":"25.5741","MEAN_MOTION_DDOT":"0.0000000000000","OBJECT_ID":"2019-074BC","FILE":"3621474","ELEMENT_SET_NO":"999","MEAN_MOTION":"15.06386139","CLASSIFICATION_TYPE":"U","ARG_OF_PERICENTER":"62.6567","MEAN_ANOMALY":"297.4604","COUNTRY_CODE":"US","TLE_LINE2":"2 44763  53.0564  25.5741 0001785  62.6567 297.4604 15.06386139161558","PERIAPSIS":"546.020","LAUNCH_DATE":"2019-11-11","DECAY_DATE":null,"ECCENTRICITY":"0.00017850","BSTAR":"0.00025790000000","TLE_LINE1":"1 44763U 19074BC  22291.38321475  .00003560  00000-0  25790-3 0  9994","REV_AT_EPOCH":"16155","MEAN_ELEMENT_THEORY":"SGP4","GP_ID":"215494741","TIME_SYSTEM":"UTC","SITE":"AFETR","SEMIMAJOR_AXIS":"6925.391","EPHEMERIS_TYPE":"0","EPOCH":"2022-10-18T09:11:49.754400","OBJECT_NAME":"STARLINK-1058","NORAD_CAT_ID":"44763","INCLINATION":"53.0564","OBJECT_TYPE":"PAYLOAD","PERIOD":"95.593","MEAN_MOTION_DOT":"0.00003560","CENTER_NAME":"EARTH"},{"CENTER_NAME":"EARTH","MEAN_MOTION_DOT":"0.00017004","PERIOD":"95.380","OBJECT_TYPE":"PAYLOAD","INCLINATION":"53.0567","NORAD_CAT_ID":"44764","OBJECT_NAME":"STARLINK-1059","EPOCH":"2022-10-18T13:39:44.621280","EPHEMERIS_TYPE":"0","SEMIMAJOR_AXIS":"6915.103","SITE":"AFETR","TIME_SYSTEM":"UTC","GP_ID":"215524832","MEAN_ELEMENT_THEORY":"SGP4","REV_AT_EPOCH":"16187","TLE_LINE1":"1 44764U 19074BD  22291.56926645  .00017004  00000-0  10572-2 0  9994","BSTAR":"0.00105720000000","ECCENTRICITY":"0.00031710","DECAY_DATE":null,"LAUNCH_DATE":"2019-11-11","PERIAPSIS":"534.775","TLE_LINE2":"2 44764  53.0567   3.5020 0003171  66.3321 293.8002 15.09749114161874","COUNTRY_CODE":"US","MEAN_ANOMALY":"293.8002","ARG_OF_PERICENTER":"66.3321","CLASSIFICATION_TYPE":"U","FILE":"3621750","ELEMENT_SET_NO":"999","MEAN_MOTION":"15.09749114","OBJECT_ID":"2019-074BD","MEAN_MOTION_DDOT":"0.0000000000000","RA_OF_ASC_NODE":"3.5020","REF_FRAME":"TEME","RCS_SIZE":"LARGE","APOAPSIS":"539.161"},{"NORAD_CAT_ID":"44765","INCLINATION":"53.0573","OBJECT_NAME":"STARLINK-1060","EPHEMERIS_TYPE":"0","EPOCH":"2022-10-18T15:27:22.730112","CENTER_NAME":"EARTH","MEAN_MOTION_DOT":"-0.00000548","OBJECT_TYPE":"PAYLOAD","PERIOD":"95.593","GP_ID":"215525082","TIME_SYSTEM":"UTC","TLE_LINE1":"1 44765U 19074BE  22291.64401308 -.00000548  00000-0 -17924-4 0  9995","REV_AT_EPOCH":"16186","MEAN_ELEMENT_THEORY":"SGP4","BSTAR":"-0.00001792400000","SEMIMAJOR_AXIS":"6925.372","SITE":"AFETR","TLE_LINE2":"2 44765  53.0573   4.4290 0001569  56.5320 303.5819 15.06392232161866","PERIAPSIS":"546.151","COUNTRY_CODE":"US","MEAN_ANOMALY":"303.5819","ECCENTRICITY":"0.00015690","DECAY_DATE":null,"LAUNCH_DATE":"2019-11-11","MEAN_MOTION_DDOT":"0.0000000000000","RA_OF_ASC_NODE":"4.4290","REF_FRAME":"TEME","APOAPSIS":"548.324","RCS_SIZE":"LARGE","ARG_OF_PERICENTER":"56.5320","OBJECT_ID":"2019-074BE","FILE":"3621750","ELEMENT_SET_NO":"999","MEAN_MOTION":"15.06392232","CLASSIFICATION_TYPE":"U"},{"BSTAR":"0.00032810000000","GP_ID":"215494990","TIME_SYSTEM":"UTC","TLE_LINE1":"1 44766U 19074BF  22291.37679361  .00004607  00000-0  32810-3 0  9990","MEAN_ELEMENT_THEORY":"SGP4","REV_AT_EPOCH":"16155","SITE":"AFETR","SEMIMAJOR_AXIS":"6925.383","OBJECT_NAME":"STARLINK-1061","EPHEMERIS_TYPE":"0","EPOCH":"2022-10-18T09:02:34.967904","NORAD_CAT_ID":"44766","INCLINATION":"53.0556","OBJECT_TYPE":"PAYLOAD","PERIOD":"95.593","CENTER_NAME":"EARTH","MEAN_MOTION_DOT":"0.00004607","REF_FRAME":"TEME","APOAPSIS":"548.445","RCS_SIZE":"LARGE","MEAN_MOTION_DDOT":"0.0000000000000","RA_OF_ASC_NODE":"25.6338","FILE":"3621474","ELEMENT_SET_NO":"999","OBJECT_ID":"2019-074BF","MEAN_MOTION":"15.06388882","CLASSIFICATION_TYPE":"U","ARG_OF_PERICENTER":"70.5781","MEAN_ANOMALY":"289.5395","TLE_LINE2":"2 44766  53.0556  25.6338 0001729  70.5781 289.5395 15.06388882161555","PERIAPSIS":"546.050","COUNTRY_CODE":"US","DECAY_DATE":null,"LAUNCH_DATE":"2019-11-11","ECCENTRICITY":"0.00017290"},{"GP_ID":"215526083","TIME_SYSTEM":"UTC","TLE_LINE1":"1 44767U 19074BG  22291.56751503 -.00001151  00000-0 -58383-4 0  9998","MEAN_ELEMENT_THEORY":"SGP4","REV_AT_EPOCH":"16158","BSTAR":"-0.00005838300000","SEMIMAJOR_AXIS":"6925.388","SITE":"AFETR","NORAD_CAT_ID":"44767","INCLINATION":"53.0568","OBJECT_NAME":"STARLINK-1062","EPHEMERIS_TYPE":"0","EPOCH":"2022-10-18T13:37:13.298592","CENTER_NAME":"EARTH","MEAN_MOTION_DOT":"-0.00001151","PERIOD":"95.593","OBJECT_TYPE":"PAYLOAD","MEAN_MOTION_DDOT":"0.0000000000000","RA_OF_ASC_NODE":"24.7631","REF_FRAME":"TEME","APOAPSIS":"548.343","RCS_SIZE":"LARGE","ARG_OF_PERICENTER":"53.9481","OBJECT_ID":"2019-074BG","FILE":"3621750","ELEMENT_SET_NO":"999","MEAN_MOTION":"15.06387037","CLASSIFICATION_TYPE":"U","TLE_LINE2":"2 44767  53.0568  24.7631 0001574  53.9481 306.1653 15.06387037161582","PERIAPSIS":"546.163","COUNTRY_CODE":"US","MEAN_ANOMALY":"306.1653","ECCENTRICITY":"0.00015740","DECAY_DATE":null,"LAUNCH_DATE":"2019-11-11"}];
